[{"OBJECT_NAME":"ONEWEB-0523","OBJECT_ID":"2022-138AE","EPOCH":"2026-03-09T15:18:05.343840","MEAN_MOTION":13.20771449,"ECCENTRICITY":0.0001864,"INCLINATION":87.9173,"RA_OF_ASC_NODE":294.3163,"ARG_OF_PERICENTER":61.8476,"MEAN_ANOMALY":298.2846,"EPHEMERIS_TYPE":0,"CLASSIFICATION_TYPE":"U","NORAD_CAT_ID":54141,"ELEMENT_SET_NO":999,"REV_AT_EPOCH":16616,"BSTAR":-0.00040711,"MEAN_MOTION_DOT":-1.53e-6,"MEAN_MOTION_DDOT":0},{"OBJECT_NAME":"COSMOS 970 DEB","OBJECT_ID":"1977-121D","EPOCH":"2026-03-09T13:50:02.700096","MEAN_MOTION":13.36757633,"ECCENTRICITY":0.0084617,"INCLINATION":65.8696,"RA_OF_ASC_NODE":139.2268,"ARG_OF_PERICENTER":134.762,"MEAN_ANOMALY":336.3173,"EPHEMERIS_TYPE":0,"CLASSIFICATION_TYPE":"U","NORAD_CAT_ID":10562,"ELEMENT_SET_NO":999,"REV_AT_EPOCH":34819,"BSTAR":0.00039332,"MEAN_MOTION_DOT":1.36e-6,"MEAN_MOTION_DDOT":0}]
